STARLINK-1833           
1 46759U 20074W   24078.86147790  .00005010  00000+0  35496-3 0  9992
2 46759  53.0556 332.5409 0001342  99.6964 260.4177 15.06403618187553
STARLINK-1896           
1 46760U 20074X   24078.87254218  .00002438  00000+0  18255-3 0  9994
2 46760  53.0559 332.4913 0001572  87.4435 272.6734 15.06394751187843
STARLINK-1903           
1 46764U 20074AB  24078.86516385  .00002374  00000+0  17821-3 0  9990
2 46764  53.0540 332.5130 0001624 115.1290 244.9867 15.06399842187840
STARLINK-1906           
1 46765U 20074AC  24078.85411134  .00008885  00000+0  61448-3 0  9993
2 46765  53.0548 332.5734 0001158  82.7718 277.3402 15.06408276187549
STARLINK-1916           
1 46766U 20074AD  24078.84673609  .00002567  00000+0  19123-3 0  9994
2 46766  53.0541 332.6054 0001554  80.5631 279.5534 15.06391045187555
STARLINK-1917           
1 46767U 20074AE  24078.87622618  .00002162  00000+0  16401-3 0  9999
2 46767  53.0558 332.4753 0001887  80.6384 279.4819 15.06403101187836
STARLINK-1918           
1 46768U 20074AF  24078.87990139  .00001295  00000+0  10585-3 0  9999
2 46768  53.0542 332.4467 0002139 139.8510 220.2637 15.06403896187845
STARLINK-1932           
1 46770U 20074AH  24078.88734515  .00000883  00000+0  78142-4 0  9993
2 46770  53.0547 332.9734 0001155  78.9323 281.1796 15.06394664187830
STARLINK-1936           
1 46772U 20074AK  24078.88634006  .00003032  00000+0  22234-3 0  9998
2 46772  53.0547 332.4171 0001352  78.1570 281.9571 15.06398267187840
STARLINK-1798           
1 46779U 20074AS  24078.85088709  .00000913  00000+0  80192-4 0  9998
2 46779  53.0527 307.5837 0001357 116.4032 243.7097 15.06388400187882
STARLINK-1832           
1 46780U 20074AT  24078.04365530  .00001317  00000+0  10734-3 0  9994
2 46780  53.0543 311.2109 0001425  85.2841 274.8310 15.06393877188049
STARLINK-1834           
1 46781U 20074AU  24078.85733751  .00001950  00000+0  14981-3 0  9999
2 46781  53.0553 317.5571 0001622 130.0242 230.0889 15.06397444187763
STARLINK-1835           
1 46782U 20074AV  24078.03260036  .00006559  00000+0  45877-3 0  9999
2 46782  53.0550 311.2596 0001512  75.8101 284.3056 15.06405637188041
STARLINK-1851           
1 46783U 20074AW  24078.58334491  .01192857  00000+0  14242-1 0  9995
2 46783  53.0552 303.6508 0001121 116.4517  18.0134 15.58029800187938
STARLINK-1882           
1 46784U 20074AX  24078.86933966  .00000989  00000+0  85305-4 0  9993
2 46784  53.0555 307.7365 0001600  94.6308 265.4864 15.06397678187836
STARLINK-1883           
1 46785U 20074AY  24078.03629076  .00002310  00000+0  17393-3 0  9998
2 46785  53.0550 311.2417 0001396  90.0424 270.0725 15.06394318188041
STARLINK-1893           
1 46786U 20074AZ  24078.01599501 -.00008580  00000+0 -55724-3 0  9993
2 46786  53.0544 291.3363 0001407 112.5166 247.5972 15.06436915188323
STARLINK-1899           
1 46787U 20074BA  24078.91667824  .00514299  00000+0  22523-1 0  9993
2 46787  53.0510 286.1650 0001157 103.1794   8.1264 15.19519603188159
STARLINK-1929           
1 46788U 20074BB  24078.00127780  .00003004  00000+0  22049-3 0  9998
2 46788  53.0541 291.4022 0001370  97.2443 262.8702 15.06397325188323
STARLINK-1930           
1 46789U 20074BC  24078.88683301  .00000115  00000+0  26594-4 0  9991
2 46789  53.0551 317.5904 0001186  96.8480 263.2644 15.06385884187714
STARLINK-1931           
1 46790U 20074BD  24078.84996461  .00001992  00000+0  15263-3 0  9997
2 46790  53.0555 317.5909 0001310  81.8039 278.3099 15.06393775187706
STARLINK-1933           
1 46791U 20074BE  24078.86471243  .00003669  00000+0  26509-3 0  9994
2 46791  53.0554 317.5313 0001363  83.6380 276.4765 15.06399706187701
STARLINK-1934           
1 46792U 20074BF  24078.89144523  .00002017  00000+0  15433-3 0  9996
2 46792  53.0536 307.4138 0001632  68.1317 291.9845 15.06384311187844
STARLINK-1941           
1 46793U 20074BG  24078.85366283 -.00002032  00000+0 -11765-3 0  9995
2 46793  53.0557 317.5756 0001543  59.2004 300.9136 15.06373891187701
STARLINK-1942           
1 46794U 20074BH  24078.79467852  .00003684  00000+0  26615-3 0  9995
2 46794  53.0555 317.8377 0001582  78.5647 281.5520 15.06392834187701
STARLINK-1944           
1 46796U 20074BK  24078.03997871  .00007872  00000+0  54671-3 0  9999
2 46796  53.0541 311.2273 0001268  82.1995 277.9138 15.06404232188047
STARLINK-1948           
1 46798U 20074BM  24078.86790275  .00003665  00000+0  26479-3 0  9992
2 46798  53.0558 332.5107 0001868 116.6941 243.4240 15.06405017187569
STARLINK-1777           
1 47122U 20088A   24078.62327715  .00001018  00000+0  87205-4 0  9993
2 47122  53.0550 298.6120 0001585  79.2919 280.8249 15.06398950183450
STARLINK-1785           
1 47124U 20088C   24078.87530368  .00002149  00000+0  16310-3 0  9996
2 47124  53.0548 302.4907 0001356  84.1858 275.9286 15.06396582183421
STARLINK-1812           
1 47126U 20088E   24077.98560520  .00003417  00000+0  24818-3 0  9993
2 47126  53.0540 301.4719 0001386  86.0795 274.0352 15.06394300183069
STARLINK-1837           
1 47128U 20088G   24078.87207702  .00001590  00000+0  12559-3 0  9993
2 47128  53.0546 277.4930 0001390  89.2069 270.9079 15.06397863183774
STARLINK-1838           
1 47129U 20088H   24078.56891065  .00002521  00000+0  18804-3 0  9995
2 47129  53.0540 288.8531 0001212  88.5628 271.5500 15.06408922183593
STARLINK-1843           
1 47133U 20088M   24078.56153465  .00001086  00000+0  91770-4 0  9994
2 47133  53.0544 288.8856 0001276  89.4453 270.6682 15.06392577183283
STARLINK-1844           
1 47134U 20088N   24078.60116930  .00001937  00000+0  14887-3 0  9994
2 47134  53.0535 298.7061 0001400 104.0179 256.0966 15.06402667183151
STARLINK-1845           
1 47135U 20088P   24078.02338109  .00003566  00000+0  25811-3 0  9994
2 47135  53.0535 291.3012 0001397  87.7417 272.3732 15.06405526183209
STARLINK-1846           
1 47136U 20088Q   24078.61959027  .00002593  00000+0  19288-3 0  9998
2 47136  53.0531 298.6263 0001474  91.2370 268.8788 15.06399696183456
STARLINK-1849           
1 47137U 20088R   24078.86748426  .00006754  00000+0  47198-3 0  9999
2 47137  53.0533 287.5118 0001511  87.7578 272.3584 15.06393428183638
STARLINK-1850           
1 47138U 20088S   24078.86520596  .00004070  00000+0  29194-3 0  9991
2 47138  53.0540 292.8417 0001408  86.8777 273.2373 15.06400070183564
STARLINK-1852           
1 47139U 20088T   24078.84952517  .00001487  00000+0  11871-3 0  9994
2 47139  53.0550 302.7974 0001033  75.9109 284.1995 15.06394982183416
STARLINK-1854           
1 47141U 20088V   24078.84171058 -.00003706  00000+0 -23034-3 0  9992
2 47141  53.0538 287.6276 0001542  92.8173 267.2992 15.06353815183627
STARLINK-1856           
1 47143U 20088X   24078.55784636  .00001994  00000+0  15276-3 0  9998
2 47143  53.0551 288.9016 0001297  94.8320 265.2817 15.06395263183282
STARLINK-1857           
1 47144U 20088Y   24077.94688042  .00005154  00000+0  36447-3 0  9990
2 47144  53.0542 281.6479 0001498  92.6296 267.4865 15.06420046183585
STARLINK-1860           
1 47147U 20088AB  24078.03720055 -.00000001  00000+0  18836-4 0  9995
2 47147  53.0550 301.2411 0001368  95.0293 265.0853 15.06393657183074
STARLINK-1861           
1 47148U 20088AC  24077.81328743  .00003003  00000+0  22049-3 0  9993
2 47148  53.0537 292.2467 0001261  93.5872 266.5261 15.06385747183179
STARLINK-1862           
1 47149U 20088AD  24078.63801342  .00001825  00000+0  14143-3 0  9992
2 47149  53.0542 298.5433 0001780  86.4180 273.7012 15.06386562183414
STARLINK-1863           
1 47150U 20088AE  24078.56523664  .00008167  00000+0  56655-3 0  9994
2 47150  53.0528 288.8737 0001173  89.5800 270.5324 15.06397023183299
STARLINK-1864           
1 47151U 20088AF  24078.03352108  .00005119  00000+0  36230-3 0  9991
2 47151  53.0540 301.2559 0001021 104.4796 255.6307 15.06401327183062
STARLINK-1866           
1 47152U 20088AG  24077.88513835  .00001819  00000+0  14098-3 0  9991
2 47152  53.0550 301.9128 0001388  80.8311 279.2835 15.06399053183294
STARLINK-1867           
1 47153U 20088AH  24078.87900301  .00001245  00000+0  10247-3 0  9995
2 47153  53.0544 302.7000 0001397  97.9359 262.1789 15.06400048183372
STARLINK-1869           
1 47155U 20088AK  24078.02523160  .00002312  00000+0  17409-3 0  9991
2 47155  53.0558 311.2957 0001328  96.4336 263.6805 15.06395667182923
STARLINK-1871           
1 47157U 20088AM  24078.85917621 -.00001646  00000+0 -91603-4 0  9993
2 47157  53.0537 297.5502 0002721 153.2792 206.8337 15.06389532183441
STARLINK-1873           
1 47158U 20088AN  24077.82065605  .00003299  00000+0  24028-3 0  9996
2 47158  53.0536 292.2137 0001251  90.2234 269.8899 15.06400114183177
STARLINK-1876           
1 47161U 20088AR  24077.98652153  .00000381  00000+0  44449-4 0  9996
2 47161  53.0547 291.4658 0001405 101.4474 258.6672 15.06401092183209
STARLINK-1877           
1 47162U 20088AS  24078.84442522 -.00000378  00000+0 -64701-5 0  9992
2 47162  53.0543 297.6173 0001259 115.0734 245.0386 15.06387142183440
STARLINK-1878           
1 47163U 20088AT  24078.87668966  .00001502  00000+0  11975-3 0  9999
2 47163  53.0545 307.4669 0001320 100.1306 259.9832 15.06391864183303
STARLINK-1879           
1 47164U 20088AU  24078.53296303  .00001355  00000+0  10987-3 0  9993
2 47164  53.0538 279.0129 0001372 100.2616 259.8528 15.06394760183425
STARLINK-1880           
1 47165U 20088AV  24078.87023972  .00002604  00000+0  19369-3 0  9992
2 47165  53.0547 297.5021 0001294  83.0097 277.1039 15.06390840183443
STARLINK-1884           
1 47167U 20088AX  24078.85548599  .00004515  00000+0  32175-3 0  9992
2 47167  53.0535 297.5661 0001243  84.9152 275.1979 15.06403150183493
STARLINK-1887           
1 47170U 20088BA  24077.84553483  .00001008  00000+0  86542-4 0  9994
2 47170  53.0546 302.1016 0001514  95.3422 264.7740 15.06407522183333
